NORAD_CAT_ID,OBJECT_NAME,OBJECT_TYPE,EPOCH,MEAN_MOTION,ECCENTRICITY,INCLINATION,RA_OF_ASC_NODE,ARG_OF_PERICENTER,MEAN_ANOMALY,BSTAR,MEAN_MOTION_DOT,MEAN_MOTION_DDOT,TLE_LINE0,TLE_LINE1,TLE_LINE2,SEMIMAJOR_AXIS,PERIOD,APOGEE,PERIGEE,DECAYED
52001.0,STARLINK-3659,PAYLOAD,2022-11-21 15:34:03,15.08835817,0.0001643,53.2174,24.2851,49.3399,310.7736,-1.4883e-05,-5.25e-06,0.0,0 STARLINK-3659,1 52001U 22025AX  22325.64865678 -.00000525  00000-0 -14883-4 0  9995,2 52001  53.2174  24.2851 0001643  49.3399 310.7736 15.08835817 39156,6917.893,95.438,540.895,538.622,0.0
52001.0,STARLINK-3659,PAYLOAD,2022-11-22 09:03:17,15.0884364,0.0001664,53.2174,21.014,48.1544,311.959,0.00010931,1.452e-05,0.0,0 STARLINK-3659,1 52001U 22025AX  22326.37728939  .00001452  00000-0  10931-3 0  9991,2 52001  53.2174  21.0140 0001664  48.1544 311.9590 15.08843640 40790,6917.869000000002,95.437,540.885,538.5830000000002,0.0
52001.0,STARLINK-3659,PAYLOAD,2022-11-22 12:14:03,15.08846938,0.0001692,53.2174,20.4192,45.7903,314.3227,0.00011241,1.502e-05,0.0,0 STARLINK-3659,1 52001U 22025AX  22326.50976741  .00001502  00000-0  11241-3 0  9993,2 52001  53.2174  20.4192 0001692  45.7903 314.3227 15.08846938 39282,6917.859,95.437,540.895,538.554,0.0
52001.0,STARLINK-3659,PAYLOAD,2022-11-22 15:24:50,15.08847178,0.0001744,53.2169,19.8249,45.8894,314.2241,0.00019104,2.754e-05,0.0,0 STARLINK-3659,1 52001U 22025AX  22326.64224955  .00002754  00000-0  19104-3 0  9997,2 52001  53.2169  19.8249 0001744  45.8894 314.2241 15.08847178 39304,6917.858,95.437,540.93,538.5169999999998,0.0
52001.0,STARLINK-3659,PAYLOAD,2022-11-23 08:54:05,15.08838034,0.000179,53.2172,16.5536,51.4809,308.6344,0.00020237,2.934e-05,0.0,0 STARLINK-3659,1 52001U 22025AX  22327.37089593  .00002934  00000-0  20237-3 0  9994,2 52001  53.2172  16.5536 0001790  51.4809 308.6344 15.08838034 40945,6917.886,95.438,540.99,538.513,0.0
52001.0,STARLINK-3659,PAYLOAD,2022-11-23 10:29:28,15.08840313,0.0001784,53.2169,16.2566,47.2813,312.8329,0.0002373,3.491e-05,0.0,0 STARLINK-3659,1 52001U 22025AX  22327.43713518  .00003491  00000-0  23730-3 0  9992,2 52001  53.2169  16.2566 0001784  47.2813 312.8329 15.08840313 39426,6917.879,95.438,540.979,538.51,0.0
52001.0,STARLINK-3659,PAYLOAD,2022-11-23 20:01:47,15.08841098,0.0001793,53.2168,14.4727,46.65600000000001,313.4582,0.00010901,1.447e-05,0.0,0 STARLINK-3659,1 52001U 22025AX  22327.83457469  .00001447  00000-0  10901-3 0  9991,2 52001  53.2168  14.4727 0001793  46.6560 313.4582 15.08841098 39481,6917.877,95.437,540.982,538.502,0.0
52001.0,STARLINK-3659,PAYLOAD,2022-11-24 10:20:15,15.08842333,0.0001868,53.2167,11.7965,47.5989,312.5161,8.392399999999999e-05,1.048e-05,0.0,0 STARLINK-3659,1 52001U 22025AX  22328.43073523  .00001048  00000-0  83924-4 0  9996,2 52001  53.2167  11.7965 0001868  47.5989 312.5161 15.08842333 41100,6917.873000000001,95.437,541.031,538.446,0.0
52001.0,STARLINK-3659,PAYLOAD,2022-11-24 19:52:34,15.08848934,0.0001919,53.2168,10.0122,46.44300000000001,313.6721,0.00013562,1.871e-05,0.0,0 STARLINK-3659,1 52001U 22025AX  22328.82817172  .00001871  00000-0  13562-3 0  9999,2 52001  53.2168  10.0122 0001919  46.4430 313.6721 15.08848934 39636,6917.853,95.437,541.0459999999998,538.391,0.0
52001.0,STARLINK-3659,PAYLOAD,2022-11-25 10:11:02,15.08837705,0.0001926,53.217,7.3359,47.8114,312.3041,1.3387e-05,-7.5e-07,0.0,0 STARLINK-3659,1 52001U 22025AX  22329.42433712 -.00000075  00000-0  13387-4 0  9992,2 52001  53.2170   7.3359 0001926  47.8114 312.3041 15.08837705 41258,6917.887,95.438,541.085,538.42,0.0
52001.0,STARLINK-3659,PAYLOAD,2022-11-25 11:46:25,15.08842165,0.0001892,53.2178,7.0384,48.1774,311.938,9.1058e-05,1.161e-05,0.0,0 STARLINK-3659,1 52001U 22025AX  22329.49057756  .00001161  00000-0  91058-4 0  9996,2 52001  53.2178   7.0384 0001892  48.1774 311.9380 15.08842165 39736,6917.874,95.437,541.048,538.43,0.0
52001.0,STARLINK-3659,PAYLOAD,2022-11-25 19:43:21,15.08846611,0.0001912,53.2177,5.5514,46.8548,313.2604,0.00017421,2.486e-05,0.0,0 STARLINK-3659,1 52001U 22025AX  22329.82177292  .00002486  00000-0  17421-3 0  9993,2 52001  53.2177   5.5514 0001912  46.8548 313.2604 15.08846611 39789,6917.86,95.437,541.048,538.4019999999998,0.0
52001.0,STARLINK-3659,PAYLOAD,2022-11-26 02:04:53,15.08849804,0.000191,53.2177,4.3618,47.1017,313.0135,0.00023084,3.389e-05,0.0,0 STARLINK-3659,1 52001U 22025AX  22330.08672992  .00003389  00000-0  23084-3 0  9995,2 52001  53.2177   4.3618 0001910  47.1017 313.0135 15.08849804 41354,6917.85,95.437,541.0369999999998,538.394,0.0
52001.0,STARLINK-3659,PAYLOAD,2022-11-26 10:01:49,15.0884346,0.00019,53.2168,2.8749,46.6254,313.4896,6.2412e-05,7.05e-06,0.0,0 STARLINK-3659,1 52001U 22025AX  22330.41793335  .00000705  00000-0  62412-4 0  9995,2 52001  53.2168   2.8749 0001900  46.6254 313.4896 15.08843460 41404,6917.87,95.437,541.049,538.42,0.0
52001.0,STARLINK-3659,PAYLOAD,2022-11-26 11:37:12,15.08843201,0.0001906,53.2169,2.5776,46.4309,313.6841,5.4919e-05,5.86e-06,0.0,0 STARLINK-3659,1 52001U 22025AX  22330.48417322  .00000586  00000-0  54919-4 0  9991,2 52001  53.2169   2.5776 0001906  46.4309 313.6841 15.08843201 39881,6917.871,95.437,541.054,538.4169999999998,0.0
52001.0,STARLINK-3659,PAYLOAD,2022-11-26 19:34:07,15.08851053,0.0001876,53.2177,1.0906,46.4963,313.6185,0.00010981,1.46e-05,0.0,0 STARLINK-3659,1 52001U 22025AX  22330.81536794  .00001460  00000-0  10981-3 0  9995,2 52001  53.2177   1.0906 0001876  46.4963 313.6185 15.08851053 39932,6917.847,95.437,541.009,538.414,0.0
52001.0,STARLINK-3659,PAYLOAD,2022-11-27 05:06:27,15.0883654,0.0001758,53.2177,359.3063,46.1929,313.9208,0.0001002999999999,1.308e-05,0.0,0 STARLINK-3659,1 52001U 22025AX  22331.21281615  .00001308  00000-0  10030-3 0  9995,2 52001  53.2177 359.3063 0001758  46.1929 313.9208 15.08836540 41524,6917.891,95.438,540.972,538.54,0.0
52001.0,STARLINK-3659,PAYLOAD,2022-11-27 11:28:00,15.08826827,0.0001881,53.2178,358.1173,45.8397,314.275,-4.4845e-05,-1.002e-05,0.0,0 STARLINK-3659,1 52001U 22025AX  22331.47778611 -.00001002  00000-0 -44845-4 0  9995,2 52001  53.2178 358.1173 0001881  45.8397 314.2750 15.08826827 40034,6917.920999999999,95.438,541.087,538.484,0.0
52001.0,STARLINK-3659,PAYLOAD,2022-11-27 19:24:56,15.08828952,0.0001973,53.2179,356.6307,45.7344,314.381,-5.9732e-05,-1.238e-05,0.0,0 STARLINK-3659,1 52001U 22025AX  22331.80898767 -.00001238  00000-0 -59732-4 0  9999,2 52001  53.2179 356.6307 0001973  45.7344 314.3810 15.08828952 40084,6917.9140000000025,95.438,541.144,538.414,0.0
52001.0,STARLINK-3659,PAYLOAD,2022-11-28 01:46:28,15.08837312,0.0001659,53.2177,355.44,42.9332,317.1789,-3.9461e-05,-9.16e-06,0.0,0 STARLINK-3659,1 52001U 22025AX  22332.07393992 -.00000916  00000-0 -39461-4 0  9998,2 52001  53.2177 355.4400 0001659  42.9332 317.1789 15.08837312 41650,6917.889,95.438,540.901,538.606,0.0
52001.0,STARLINK-3659,PAYLOAD,2022-11-28 12:54:09,15.08843011,0.0001892,53.2173,353.3593,35.1042,325.0075,7.8889e-05,9.68e-06,0.0,0 STARLINK-3659,1 52001U 22025AX  22332.53761343  .00000968  00000-0  78889-4 0  9990,2 52001  53.2173 353.3593 0001892  35.1042 325.0075 15.08843011 41724,6917.871,95.437,541.045,538.427,0.0
52001.0,STARLINK-3659,PAYLOAD,2022-11-29 01:37:14,15.08869434,0.0001985,53.2173,350.9804,37.3851,322.7279,-0.00038616,-6.434e-05,0.0,0 STARLINK-3659,1 52001U 22025AX  22333.06752902 -.00006434  00000-0 -38616-3 0  9999,2 52001  53.2173 350.9804 0001985  37.3851 322.7279 15.08869434 41803,6917.79,95.436,541.029,538.2819999999998,0.0
52001.0,STARLINK-3659,PAYLOAD,2022-11-29 11:09:34,15.08835217,0.0001905,53.2174,349.1964,41.0238,319.0898,0.00017578,2.51e-05,0.0,0 STARLINK-3659,1 52001U 22025AX  22333.46497728  .00002510  00000-0  17578-3 0  9998,2 52001  53.2174 349.1964 0001905  41.0238 319.0898 15.08835217 40339,6917.895,95.438,541.078,538.442,0.0
52001.0,STARLINK-3659,PAYLOAD,2022-11-30 07:49:36,15.08828564,0.0001963,53.2177,345.3303,42.9174,317.1971,-5.3467e-05,-1.139e-05,0.0,0 STARLINK-3659,1 52001U 22025AX  22334.32611139 -.00001139  00000-0 -53467-4 0  9994,2 52001  53.2177 345.3303 0001963  42.9174 317.1971 15.08828564 41991,6917.915,95.438,541.138,538.422,0.0
52001.0,STARLINK-3659,PAYLOAD,2022-11-30 11:00:22,15.08826311,0.0001967,53.2177,344.7358,41.6642,318.45,-7.4217e-05,-1.469e-05,0.0,0 STARLINK-3659,1 52001U 22025AX  22334.45859417 -.00001469  00000-0 -74217-4 0  9993,2 52001  53.2177 344.7358 0001967  41.6642 318.4500 15.08826311 40487,6917.922,95.438,541.148,538.4259999999998,0.0
52001.0,STARLINK-3659,PAYLOAD,2022-11-30 17:21:54,15.08832535,0.0001965,53.2176,343.5464,40.9525,319.1614,-5.223e-05,-1.119e-05,0.0,0 STARLINK-3659,1 52001U 22025AX  22334.72355086 -.00001119  00000-0 -52230-4 0  9999,2 52001  53.2176 343.5464 0001965  40.9525 319.1614 15.08832535 40525,6917.903,95.438,541.128,538.409,0.0
52001.0,STARLINK-3659,PAYLOAD,2022-12-01 10:51:08,15.08840936,0.0002006,53.2172,340.2752,40.7108,319.4033,6.7548e-05,7.87e-06,0.0,0 STARLINK-3659,1 52001U 22025AX  22335.45218462  .00000787  00000-0  67548-4 0  9992,2 52001  53.2172 340.2752 0002006  40.7108 319.4033 15.08840936 40631,6917.878000000002,95.437,541.13,538.355,0.0
52001.0,STARLINK-3659,PAYLOAD,2022-12-01 17:12:40,15.088470499999998,0.0002017,53.2174,339.0857,40.5443,319.5699,9.402e-05,1.209e-05,0.0,0 STARLINK-3659,1 52001U 22025AX  22335.71713953  .00001209  00000-0  94020-4 0  9991,2 52001  53.2174 339.0857 0002017  40.5443 319.5699 15.08847050 40674,6917.859,95.437,541.119,538.3290000000002,0.0
52001.0,STARLINK-3659,PAYLOAD,2022-12-02 09:06:32,15.08835992,0.0002026,53.2175,336.1123,42.4043,317.7106,0.00018306,2.626e-05,0.0,0 STARLINK-3659,1 52001U 22025AX  22336.37954551  .00002626  00000-0  18306-3 0  9991,2 52001  53.2175 336.1123 0002026  42.4043 317.7106 15.08835992 40772,6917.893,95.438,541.159,538.356,0.0
